ONEWEB-0345             
1 49211U 21083AB  26060.32008132  .00000157  00000+0  39442-3 0  9991
2 49211  87.9041 341.6720 0002123  77.4097 282.7270 13.13471769216743
ONEWEB-0346             
1 49212U 21083AC  26060.32516354  .00000085  00000+0  18416-3 0  9990
2 49212  87.9238 356.8834 0001811  57.6725 302.4582 13.18687296215763
ONEWEB-0348             
1 49213U 21083AD  26060.16069774  .00000128  00000+0  28370-3 0  9990
2 49213  87.9186 296.0076 0001897  67.7003 292.4332 13.20771894222551
ONEWEB-0350             
1 49214U 21083AE  26060.32939923 -.00000087  00000+0 -27345-3 0  9998
2 49214  87.9040 341.6696 0002096  74.5537 285.5823 13.13469408216778
ONEWEB-0351             
1 49215U 21083AF  26060.15425487  .00000118  00000+0  25789-3 0  9998
2 49215  87.9187 296.0071 0002166 104.9857 255.1517 13.20772600222513
ONEWEB-0352             
1 49216U 21083AG  26060.30994135  .00000328  00000+0  86446-3 0  9997
2 49216  87.9036 341.6901 0001956  91.2719 268.8634 13.13469455216862
ONEWEB-0354             
1 49217U 21083AH  26060.10387395  .00000006  00000+0 -16852-4 0  9999
2 49217  87.9185 296.0167 0001862  76.6666 283.4675 13.20772244222540
ONEWEB-0355             
1 49218U 21083AJ  26060.33883399 -.00000242  00000+0 -69710-3 0  9993
2 49218  87.9029 341.6949 0001998  81.8618 278.2737 13.13468549216746
ONEWEB-0357             
1 49219U 21083AK  26060.10071876  .00000036  00000+0  57402-4 0  9993
2 49219  87.9183 296.0121 0001724  88.5025 271.6306 13.20772107222546
ONEWEB-0332             
1 49279U 21090A   26060.20749232  .00000197  00000+0  49710-3 0  9996
2 49279  87.8994 311.2508 0001562  87.7659 272.3649 13.14501875213390
ONEWEB-0347             
1 49280U 21090B   26060.16699694  .00000129  00000+0  28465-3 0  9998
2 49280  87.9187 296.0075 0001355  88.3895 271.7394 13.20773360216788
ONEWEB-0349             
1 49281U 21090C   26060.19857892  .00000100  00000+0  21384-3 0  9990
2 49281  87.9185 296.0009 0001617  82.8323 277.2994 13.20772487215572
ONEWEB-0353             
1 49282U 21090D   26060.19956271 -.00000025  00000+0 -10141-3 0  9999
2 49282  87.9003 311.2464 0001472  87.2437 272.8861 13.14502239213392
ONEWEB-0356             
1 49283U 21090E   26060.19698711  .00000055  00000+0  10327-3 0  9999
2 49283  87.9185 295.9946 0001031  54.3509 305.7720 13.20772783215575
ONEWEB-0358             
1 49284U 21090F   26060.15123016  .00000152  00000+0  34071-3 0  9997
2 49284  87.9185 296.0065 0001610  78.1037 282.0277 13.20772036216298
ONEWEB-0359             
1 49285U 21090G   26060.14806624  .00000106  00000+0  22979-3 0  9993
2 49285  87.9189 296.0041 0001837  77.3708 282.7630 13.20770012216274
ONEWEB-0360             
1 49286U 21090H   26060.13859228  .00000114  00000+0  24926-3 0  9994
2 49286  87.9186 296.0127 0001753  80.5214 279.6117 13.20772761215583
ONEWEB-0361             
1 49287U 21090J   26060.19541479  .00000075  00000+0  15243-3 0  9995
2 49287  87.9184 295.9991 0001498  77.5176 282.6125 13.20772618216044
ONEWEB-0362             
1 49288U 21090K   26060.28993175  .00000121  00000+0  27115-3 0  9993
2 49288  87.9238 326.4719 0001929  84.3744 275.7609 13.19725825212681
ONEWEB-0363             
1 49289U 21090L   26060.21121356  .00000199  00000+0  45652-3 0  9992
2 49289  87.9186 295.9966 0001429  70.9295 289.1993 13.20773345216057
ONEWEB-0364             
1 49290U 21090M   26060.17332400  .00000062  00000+0  12024-3 0  9999
2 49290  87.9173 296.0198 0001553  79.1094 281.0214 13.20771987217182
ONEWEB-0365             
1 49291U 21090N   26060.29939539 -.00000148  00000+0 -40211-3 0  9995
2 49291  87.9253 326.4482 0001766  82.8020 277.3313 13.19724768212199
ONEWEB-0366             
1 49292U 21090P   26060.19639153 -.00000024  00000+0 -99860-4 0  9992
2 49292  87.8992 311.2577 0001673  78.3509 281.7809 13.14502151213370
ONEWEB-0367             
1 49293U 21090Q   26060.20961795  .00000176  00000+0  39971-3 0  9997
2 49293  87.9188 295.9968 0001741  87.7129 272.4204 13.20772939215579
ONEWEB-0368             
1 49294U 21090R   26060.10702984  .00000001  00000+0 -30413-4 0  9991
2 49294  87.9175 296.0399 0000864  93.5760 266.5473 13.20772520216712
ONEWEB-0369             
1 49295U 21090S   26060.29466975  .00000189  00000+0  43922-3 0  9993
2 49295  87.9241 326.4680 0001634  80.7636 279.3682 13.19725623212185
ONEWEB-0370             
1 49296U 21090T   26060.14333919  .00000081  00000+0  16660-3 0  9999
2 49296  87.9187 296.0113 0001939  82.8639 277.2714 13.20771318215609
ONEWEB-0371             
1 49297U 21090U   26060.30256752  .00000065  00000+0  12893-3 0  9993
2 49297  87.9243 326.4554 0001815  82.2220 277.9119 13.19725366212224
ONEWEB-0372             
1 49298U 21090V   26060.20791348  .00000166  00000+0  37559-3 0  9996
2 49298  87.9187 295.9985 0001563  85.9111 274.2201 13.20771433215581
ONEWEB-0373             
1 49299U 21090W   26060.15910511 -.00000095  00000+0 -26491-3 0  9992
2 49299  87.9175 296.0149 0001613  79.3534 280.7781 13.20771413216769
