OBJECT_NAME,OBJECT_ID,EPOCH,MEAN_MOTION,ECCENTRICITY,INCLINATION,RA_OF_ASC_NODE,ARG_OF_PERICENTER,MEAN_ANOMALY,EPHEMERIS_TYPE,CLASSIFICATION_TYPE,NORAD_CAT_ID,ELEMENT_SET_NO,REV_AT_EPOCH,BSTAR,MEAN_MOTION_DOT,MEAN_MOTION_DDOT
ONEWEB-0345,2021-083AB,2026-03-01T07:40:55.026048,13.13471769,.0002123,87.9041,341.6720,77.4097,282.7270,0,U,49211,999,21674,.39442E-3,.157E-5,0
ONEWEB-0346,2021-083AC,2026-03-01T07:48:14.129856,13.18687296,.0001811,87.9238,356.8834,57.6725,302.4582,0,U,49212,999,21576,.18416E-3,.85E-6,0
ONEWEB-0348,2021-083AD,2026-03-01T03:51:24.284736,13.20771894,.00018974,87.9186,296.0076,67.7003,292.4332,0,U,49213,999,22255,.28369917E-3,.128E-5,0
ONEWEB-0350,2021-083AE,2026-03-01T07:54:20.093472,13.13469408,.0002096,87.9040,341.6696,74.5537,285.5823,0,U,49214,999,21677,-.27345E-3,-.87E-6,0
ONEWEB-0351,2021-083AF,2026-03-01T03:42:07.620768,13.20772600,.00021664,87.9187,296.0071,104.9857,255.1517,0,U,49215,999,22251,.25789151E-3,.118E-5,0
ONEWEB-0352,2021-083AG,2026-03-01T07:26:18.932640,13.13469455,.0001956,87.9036,341.6901,91.2719,268.8634,0,U,49216,999,21686,.86446E-3,.328E-5,0
ONEWEB-0354,2021-083AH,2026-03-01T02:29:34.709280,13.20772244,.00018622,87.9185,296.0167,76.6666,283.4675,0,U,49217,999,22254,-.1685153E-4,.6E-7,0
ONEWEB-0355,2021-083AJ,2026-03-01T08:07:55.256736,13.13468549,.0001998,87.9029,341.6949,81.8618,278.2737,0,U,49218,999,21674,-.6971E-3,-.242E-5,0
ONEWEB-0357,2021-083AK,2026-03-01T02:25:02.100864,13.20772107,.00017246,87.9183,296.0121,88.5025,271.6306,0,U,49219,999,22254,.57402486E-4,.36E-6,0
ONEWEB-0332,2021-090A,2026-03-01T04:58:47.336448,13.14501875,.0001562,87.8994,311.2508,87.7659,272.3649,0,U,49279,999,21339,.4971E-3,.197E-5,0
ONEWEB-0347,2021-090B,2026-03-01T04:00:28.535616,13.20773360,.00013553,87.9187,296.0075,88.3895,271.7394,0,U,49280,999,21678,.28464821E-3,.129E-5,0
ONEWEB-0349,2021-090C,2026-03-01T04:45:57.218688,13.20772487,.0001617,87.9185,296.0009,82.8323,277.2994,0,U,49281,999,21557,.21384E-3,.1E-5,0
ONEWEB-0353,2021-090D,2026-03-01T04:47:22.218144,13.14502239,.0001472,87.9003,311.2464,87.2437,272.8861,0,U,49282,999,21339,-.10141E-3,-.25E-6,0
ONEWEB-0356,2021-090E,2026-03-01T04:43:39.686304,13.20772783,.0001031,87.9185,295.9946,54.3509,305.7720,0,U,49283,999,21557,.10327E-3,.55E-6,0
ONEWEB-0358,2021-090F,2026-03-01T03:37:46.285824,13.20772036,.00016103,87.9185,296.0065,78.1037,282.0277,0,U,49284,999,21629,.34071002E-3,.152E-5,0
ONEWEB-0359,2021-090G,2026-03-01T03:33:12.923136,13.20770012,.00018374,87.9189,296.0041,77.3708,282.7630,0,U,49285,999,21627,.22978508E-3,.106E-5,0
ONEWEB-0360,2021-090H,2026-03-01T03:19:34.372992,13.20772761,.00017537,87.9186,296.0127,80.5214,279.6117,0,U,49286,999,21558,.24925661E-3,.114E-5,0
ONEWEB-0361,2021-090J,2026-03-01T04:41:23.837856,13.20772618,.0001498,87.9184,295.9991,77.5176,282.6125,0,U,49287,999,21604,.15243E-3,.75E-6,0
ONEWEB-0362,2021-090K,2026-03-01T06:57:30.103200,13.19725825,.0001929,87.9238,326.4719,84.3744,275.7609,0,U,49288,999,21268,.27115E-3,.121E-5,0
ONEWEB-0363,2021-090L,2026-03-01T05:04:08.851584,13.20773345,.0001429,87.9186,295.9966,70.9295,289.1993,0,U,49289,999,21605,.45652E-3,.199E-5,0
ONEWEB-0364,2021-090M,2026-03-01T04:09:35.193600,13.20771987,.00015537,87.9173,296.0198,79.1094,281.0214,0,U,49290,999,21718,.12024033E-3,.62E-6,0
ONEWEB-0365,2021-090N,2026-03-01T07:11:07.761696,13.19724768,.0001766,87.9253,326.4482,82.8020,277.3313,0,U,49291,999,21219,-.40211E-3,-.148E-5,0
ONEWEB-0366,2021-090P,2026-03-01T04:42:48.228192,13.14502151,.0001673,87.8992,311.2577,78.3509,281.7809,0,U,49292,999,21337,-.9986E-4,-.24E-6,0
ONEWEB-0367,2021-090Q,2026-03-01T05:01:50.990880,13.20772939,.0001741,87.9188,295.9968,87.7129,272.4204,0,U,49293,999,21557,.39971E-3,.176E-5,0
ONEWEB-0368,2021-090R,2026-03-01T02:34:07.378176,13.20772520,.00008646,87.9175,296.0399,93.5760,266.5473,0,U,49294,999,21671,-.3041327E-4,.1E-7,0
ONEWEB-0369,2021-090S,2026-03-01T07:04:19.466400,13.19725623,.0001634,87.9241,326.4680,80.7636,279.3682,0,U,49295,999,21218,.43922E-3,.189E-5,0
ONEWEB-0370,2021-090T,2026-03-01T03:26:24.506016,13.20771318,.00019394,87.9187,296.0113,82.8639,277.2714,0,U,49296,999,21560,.16660437E-3,.81E-6,0
ONEWEB-0371,2021-090U,2026-03-01T07:15:41.833728,13.19725366,.0001815,87.9243,326.4554,82.2220,277.9119,0,U,49297,999,21222,.12893E-3,.65E-6,0
ONEWEB-0372,2021-090V,2026-03-01T04:59:23.724672,13.20771433,.0001563,87.9187,295.9985,85.9111,274.2201,0,U,49298,999,21558,.37559E-3,.166E-5,0
ONEWEB-0373,2021-090W,2026-03-01T03:49:06.681504,13.20771413,.00016136,87.9175,296.0149,79.3534,280.7781,0,U,49299,999,21676,-.26491282E-3,-.95E-6,0
